IRIDIUM 116             
1 43072U 17083C   24242.41415666  .00000069  00000+0  17495-4 0  9996
2 43072  86.3934 236.4419 0002211  91.0698 269.0752 14.34218304350031
IRIDIUM 130             
1 43073U 17083D   24242.73128639  .00000071  00000+0  18361-4 0  9999
2 43073  86.3942 236.5207 0002157  89.3992 270.7451 14.34218024350026
IRIDIUM 151             
1 43074U 17083E   24242.42684317  .00000427  00000+0  14555-3 0  9991
2 43074  86.3936 236.4795 0002442  92.0525 268.0951 14.34218065350009
IRIDIUM 134             
1 43075U 17083F   24242.95327658  .00000113  00000+0  33312-4 0  9997
2 43075  86.3938 236.2585 0002092  89.5499 270.5936 14.34218423350042
IRIDIUM 137             
1 43076U 17083G   24242.40781289  .00000186  00000+0  59295-4 0  9990
2 43076  86.3939 236.5659 0002432 101.6631 258.4838 14.34219134350036
IRIDIUM 141             
1 43077U 17083H   24242.95961938  .00000268  00000+0  88593-4 0  9996
2 43077  86.3936 236.2033 0002350  85.0579 275.0885 14.34218973350118
IRIDIUM 153             
1 43078U 17083J   24242.63272203  .00000411  00000+0  13970-3 0  9998
2 43078  86.4011 204.8332 0002805  77.3720 282.7789 14.34217189351177
IRIDIUM 131             
1 43079U 17083K   24242.73762895  .00000113  00000+0  33392-4 0  9991
2 43079  86.3941 236.4383 0002404  93.3387 266.8084 14.34218243350013
